{
  "links" : {
    "next" : "https://api.nasa.gov/neo/rest/v1/feed?start_date=2015-07-09&end_date=2015-07-09&detailed=true&api_key=t0TVs3DtDT2H8Oy2Zy8m2eVrNsAVKAexjcZXUckd",
    "prev" : "https://api.nasa.gov/neo/rest/v1/feed?start_date=2015-07-07&end_date=2015-07-07&detailed=true&api_key=t0TVs3DtDT2H8Oy2Zy8m2eVrNsAVKAexjcZXUckd",
    "self" : "https://api.nasa.gov/neo/rest/v1/feed?start_date=2015-07-08&end_date=2015-07-08&detailed=true&api_key=t0TVs3DtDT2H8Oy2Zy8m2eVrNsAVKAexjcZXUckd"
  },
  "element_count" : 8,
  "near_earth_objects" : {
    "2015-07-08" : [ {
      "links" : {
        "self" : "https://api.nasa.gov/neo/rest/v1/neo/3485263?api_key=t0TVs3DtDT2H8Oy2Zy8m2eVrNsAVKAexjcZXUckd"
      },
      "neo_reference_id" : "3485263",
      "name" : "(2010 AJ30)",
      "nasa_jpl_url" : "http://ssd.jpl.nasa.gov/sbdb.cgi?sstr=3485263",
      "absolute_magnitude_h" : 22.7,
      "estimated_diameter" : {
        "kilometers" : {
          "estimated_diameter_min" : 0.0766575574,
          "estimated_diameter_max" : 0.1714115092
        },
        "meters" : {
          "estimated_diameter_min" : 76.6575573531,
          "estimated_diameter_max" : 171.4115092306
        },
        "miles" : {
          "estimated_diameter_min" : 0.0476327831,
          "estimated_diameter_max" : 0.1065101409
        },
        "feet" : {
          "estimated_diameter_min" : 251.5011804664,
          "estimated_diameter_max" : 562.3737359442
        }
      },
      "is_potentially_hazardous_asteroid" : false,
      "close_approach_data" : [ {
        "close_approach_date" : "2015-07-08",
        "epoch_date_close_approach" : 1436338800000,
        "relative_velocity" : {
          "kilometers_per_second" : "16.4211535146",
          "kilometers_per_hour" : "59116.1526526266",
          "miles_per_hour" : "36732.4782968501"
        },
        "miss_distance" : {
          "astronomical" : "0.4498770359",
          "lunar" : "175.002166748",
          "kilometers" : "67300648",
          "miles" : "41818684"
        },
        "orbiting_body" : "Earth"
      } ],
      "orbital_data" : {
        "orbit_id" : "19",
        "orbit_determination_date" : "2017-04-06 08:58:37",
        "orbit_uncertainty" : "6",
        "minimum_orbit_intersection" : ".0465334",
        "jupiter_tisserand_invariant" : "7.158",
        "epoch_osculation" : "2458000.5",
        "eccentricity" : ".3021297511273738",
        "semi_major_axis" : ".8114865177152246",
        "inclination" : "7.591957852125675",
        "ascending_node_longitude" : "303.5110212495503",
        "orbital_period" : "267.0056122249443",
        "perihelion_distance" : ".5663122980747046",
        "perihelion_argument" : "350.6679604881678",
        "aphelion_distance" : "1.056660737355745",
        "perihelion_time" : "2458016.457187093685",
        "mean_anomaly" : "338.4851437920829",
        "mean_motion" : "1.348286266345258",
        "equinox" : "J2000"
      }
    }, {
      "links" : {
        "self" : "https://api.nasa.gov/neo/rest/v1/neo/3709716?api_key=t0TVs3DtDT2H8Oy2Zy8m2eVrNsAVKAexjcZXUckd"
      },
      "neo_reference_id" : "3709716",
      "name" : "(2015 CM)",
      "nasa_jpl_url" : "http://ssd.jpl.nasa.gov/sbdb.cgi?sstr=3709716",
      "absolute_magnitude_h" : 26.1,
      "estimated_diameter" : {
        "kilometers" : {
          "estimated_diameter_min" : 0.0160160338,
          "estimated_diameter_max" : 0.0358129403
        },
        "meters" : {
          "estimated_diameter_min" : 16.0160337979,
          "estimated_diameter_max" : 35.8129403019
        },
        "miles" : {
          "estimated_diameter_min" : 0.0099518989,
          "estimated_diameter_max" : 0.0222531225
        },
        "feet" : {
          "estimated_diameter_min" : 52.5460443254,
          "estimated_diameter_max" : 117.4965270602
        }
      },
      "is_potentially_hazardous_asteroid" : false,
      "close_approach_data" : [ {
        "close_approach_date" : "2015-07-08",
        "epoch_date_close_approach" : 1436338800000,
        "relative_velocity" : {
          "kilometers_per_second" : "6.7315442742",
          "kilometers_per_hour" : "24233.5593870958",
          "miles_per_hour" : "15057.7913869429"
        },
        "miss_distance" : {
          "astronomical" : "0.2214041164",
          "lunar" : "86.1262054443",
          "kilometers" : "33121586",
          "miles" : "20580798"
        },
        "orbiting_body" : "Earth"
      } ],
      "orbital_data" : {
        "orbit_id" : "13",
        "orbit_determination_date" : "2017-04-06 08:35:49",
        "orbit_uncertainty" : "6",
        "minimum_orbit_intersection" : ".0235961",
        "jupiter_tisserand_invariant" : "5.840",
        "epoch_osculation" : "2458000.5",
        "eccentricity" : ".04150279367617508",
        "semi_major_axis" : "1.049044056301033",
        "inclination" : "11.37458553863733",
        "ascending_node_longitude" : "320.0365644303094",
        "orbital_period" : "392.4542333169238",
        "perihelion_distance" : "1.005505797275153",
        "perihelion_argument" : "157.1390775636489",
        "aphelion_distance" : "1.092582315326912",
        "perihelion_time" : "2457824.643709461862",
        "mean_anomaly" : "161.3137513097115",
        "mean_motion" : ".9173044126887643",
        "equinox" : "J2000"
      }
    }, {
      "links" : {
        "self" : "https://api.nasa.gov/neo/rest/v1/neo/3720443?api_key=t0TVs3DtDT2H8Oy2Zy8m2eVrNsAVKAexjcZXUckd"
      },
      "neo_reference_id" : "3720443",
      "name" : "(2015 KL122)",
      "nasa_jpl_url" : "http://ssd.jpl.nasa.gov/sbdb.cgi?sstr=3720443",
      "absolute_magnitude_h" : 22.3,
      "estimated_diameter" : {
        "kilometers" : {
          "estimated_diameter_min" : 0.0921626549,
          "estimated_diameter_max" : 0.2060819612
        },
        "meters" : {
          "estimated_diameter_min" : 92.1626548503,
          "estimated_diameter_max" : 206.0819612321
        },
        "miles" : {
          "estimated_diameter_min" : 0.057267201,
          "estimated_diameter_max" : 0.1280533543
        },
        "feet" : {
          "estimated_diameter_min" : 302.370924539,
          "estimated_diameter_max" : 676.1219416887
        }
      },
      "is_potentially_hazardous_asteroid" : false,
      "close_approach_data" : [ {
        "close_approach_date" : "2015-07-08",
        "epoch_date_close_approach" : 1436338800000,
        "relative_velocity" : {
          "kilometers_per_second" : "5.5560706279",
          "kilometers_per_hour" : "20001.8542603843",
          "miles_per_hour" : "12428.3743875149"
        },
        "miss_distance" : {
          "astronomical" : "0.1599519029",
          "lunar" : "62.2212867737",
          "kilometers" : "23928464",
          "miles" : "14868458"
        },
        "orbiting_body" : "Earth"
      } ],
      "orbital_data" : {
        "orbit_id" : "25",
        "orbit_determination_date" : "2017-04-06 08:33:25",
        "orbit_uncertainty" : "4",
        "minimum_orbit_intersection" : ".159308",
        "jupiter_tisserand_invariant" : "3.371",
        "epoch_osculation" : "2458000.5",
        "eccentricity" : ".5106055545538861",
        "semi_major_axis" : "2.337606413142472",
        "inclination" : "6.434128504407062",
        "ascending_node_longitude" : "237.3778584402403",
        "orbital_period" : "1305.435780283544",
        "perihelion_distance" : "1.144011594231139",
        "perihelion_argument" : "56.0927459122447",
        "aphelion_distance" : "3.531201232053804",
        "perihelion_time" : "2458525.252008645600",
        "mean_anomaly" : "215.2891486769392",
        "mean_motion" : ".2757699807506479",
        "equinox" : "J2000"
      }
    } ]
  }
}